NORAD_CAT_ID,OBJECT_NAME,OBJECT_TYPE,EPOCH,MEAN_MOTION,ECCENTRICITY,INCLINATION,RA_OF_ASC_NODE,ARG_OF_PERICENTER,MEAN_ANOMALY,BSTAR,MEAN_MOTION_DOT,MEAN_MOTION_DDOT,TLE_LINE0,TLE_LINE1,TLE_LINE2,SEMIMAJOR_AXIS,PERIOD,APOGEE,PERIGEE,DECAYED
53287.0,STARLINK-4107,PAYLOAD,2023-01-21 21:04:15,15.08832592,0.0001059,53.2182,274.3943,94.5642,265.5471,0.00022062,3.224e-05,0.0,0 STARLINK-4107,1 53287U 22086AX  23021.87795510  .00003224  00000-0  22062-3 0  9999,2 53287  53.2182 274.3943 0001059  94.5642 265.5471 15.08832592 28503,6917.903,95.438,540.501,539.035,0.0
53287.0,STARLINK-4107,PAYLOAD,2023-01-23 00:05:48,15.088416,8.85e-05,53.219,269.338,95.4048,264.7046,9.3338e-05,1.198e-05,0.0,0 STARLINK-4107,1 53287U 22086AX  23023.00403560  .00001198  00000-0  93338-4 0  9990,2 53287  53.2190 269.3380 0000885  95.4048 264.7046 15.08841600 28674,6917.875,95.437,540.3530000000001,539.128,0.0
53287.0,STARLINK-4107,PAYLOAD,2023-01-24 19:01:13,15.08843621,0.0001009,53.2199,261.3129,80.6083,279.5023,6.173e-05,6.95e-06,0.0,0 STARLINK-4107,1 53287U 22086AX  23024.79251676  .00000695  00000-0  61730-4 0  9998,2 53287  53.2199 261.3129 0001009  80.6083 279.5023 15.08843621 28944,6917.869000000001,95.437,540.432,539.036,0.0
53287.0,STARLINK-4107,PAYLOAD,2023-01-24 22:11:59,15.08844322,0.0001008,53.2181,260.7162,84.0452,276.0655,8.1776e-05,1.014e-05,0.0,0 STARLINK-4107,1 53287U 22086AX  23024.92499475  .00001014  00000-0  81776-4 0  9992,2 53287  53.2181 260.7162 0001008  84.0452 276.0655 15.08844322 29125,6917.866999999999,95.437,540.429,539.035,0.0
53287.0,STARLINK-4107,PAYLOAD,2023-01-25 22:02:46,15.08795152,0.000138,53.2183,256.2551,86.9347,273.1803,0.00047457,7.264e-05,0.0,0 STARLINK-4107,1 53287U 22086AX  23025.91859318  .00007264  00000-0  47457-3 0  9998,2 53287  53.2183 256.2551 0001380  86.9347 273.1803 15.08795152 29114,6918.017,95.44,540.837,538.928,0.0
53287.0,STARLINK-4107,PAYLOAD,2023-01-26 21:53:33,15.08852411,0.0001176,53.2184,251.7957,82.9111,277.2015,0.00018486,2.656e-05,0.0,0 STARLINK-4107,1 53287U 22086AX  23026.91218825  .00002656  00000-0  18486-3 0  9991,2 53287  53.2184 251.7957 0001176  82.9111 277.2015 15.08852411 29261,6917.842,95.437,540.521,538.894,0.0
53287.0,STARLINK-4107,PAYLOAD,2023-01-27 18:33:36,15.08820669,0.0001137999999999,53.2178,247.9294,85.5654,274.5468,-9.7419e-05,-1.837e-05,0.0,0 STARLINK-4107,1 53287U 22086AX  23027.77334423 -.00001837  00000-0 -97419-4 0  9995,2 53287  53.2178 247.9294 0001138  85.5654 274.5468 15.08820669 29390,6917.939,95.439,540.592,539.0169999999999,0.0
53287.0,STARLINK-4107,PAYLOAD,2023-01-27 20:09:00,15.08819304,0.0001124,53.2178,247.6321,84.4665,275.6456,-0.00010727,-1.994e-05,0.0,0 STARLINK-4107,1 53287U 22086AX  23027.83958622 -.00001994  00000-0 -10727-3 0  9995,2 53287  53.2178 247.6321 0001124  84.4665 275.6456 15.08819304 29565,6917.944,95.439,540.586,539.031,0.0
53287.0,STARLINK-4107,PAYLOAD,2023-01-28 00:55:10,15.08813838,0.0001109,53.2174,246.74,78.94800000000001,281.1637,-0.00015007,-2.674e-05,0.0,0 STARLINK-4107,1 53287U 22086AX  23028.03831363 -.00002674  00000-0 -15007-3 0  9992,2 53287  53.2174 246.7400 0001109  78.9480 281.1637 15.08813838 29430,6917.96,95.439,540.5930000000001,539.058,0.0
53287.0,STARLINK-4107,PAYLOAD,2023-01-28 18:24:23,15.08843126,0.0001336,53.2185,243.4732,77.7142,282.4,-1.3201e-05,-4.98e-06,0.0,0 STARLINK-4107,1 53287U 22086AX  23028.76693393 -.00000498  00000-0 -13201-4 0  9998,2 53287  53.2185 243.4732 0001336  77.7142 282.4000 15.08843126 29541,6917.871,95.437,540.66,538.812,0.0
53287.0,STARLINK-4107,PAYLOAD,2023-01-28 19:59:46,15.08843635,0.0001345,53.2182,243.1756,76.6647,283.4495,-5.8309e-06,-3.81e-06,0.0,0 STARLINK-4107,1 53287U 22086AX  23028.83317349 -.00000381  00000-0 -58309-5 0  9990,2 53287  53.2182 243.1756 0001345  76.6647 283.4495 15.08843635 29712,6917.869,95.437,540.665,538.804,0.0
53287.0,STARLINK-4107,PAYLOAD,2023-01-29 00:45:55,15.08849126,0.0001321,53.2177,242.2823,75.4937,284.6202,5.5863e-05,6.01e-06,0.0,0 STARLINK-4107,1 53287U 22086AX  23029.03188792  .00000601  00000-0  55863-4 0  9995,2 53287  53.2177 242.2823 0001321  75.4937 284.6202 15.08849126 29589,6917.852,95.437,540.631,538.804,0.0
53287.0,STARLINK-4107,PAYLOAD,2023-01-29 19:50:32,15.08839695,0.0001262,53.2176,238.7137,82.1215,277.992,0.00038708,5.878e-05,0.0,0 STARLINK-4107,1 53287U 22086AX  23029.82676710  .00005878  00000-0  38708-3 0  9993,2 53287  53.2176 238.7137 0001262  82.1215 277.9920 15.08839695 29867,6917.881,95.438,540.619,538.873,0.0
53287.0,STARLINK-4107,PAYLOAD,2023-01-29 21:25:55,15.08840615,0.0001392,53.2176,238.4163,56.0068,304.1056,0.00040548,6.171e-05,0.0,0 STARLINK-4107,1 53287U 22086AX  23029.89300747  .00006171  00000-0  40548-3 0  9996,2 53287  53.2176 238.4163 0001392  56.0068 304.1056 15.08840615 29714,6917.879,95.438,540.706,538.781,0.0
53287.0,STARLINK-4107,PAYLOAD,2023-01-30 19:41:19,15.08851639,0.000126,53.2169,234.252,71.1982,288.9147,2.8651e-05,1.68e-06,0.0,0 STARLINK-4107,1 53287U 22086AX  23030.82036588  .00000168  00000-0  28651-4 0  9992,2 53287  53.2169 234.2520 0001260  71.1982 288.9147 15.08851639 30017,6917.845,95.437,540.581,538.838,0.0
53287.0,STARLINK-4107,PAYLOAD,2023-01-30 22:52:05,15.08851383,0.0001257,53.2169,233.6573,71.0204,289.0924,2.2143e-05,6.5e-07,0.0,0 STARLINK-4107,1 53287U 22086AX  23030.95284491  .00000065  00000-0  22143-4 0  9990,2 53287  53.2169 233.6573 0001257  71.0204 289.0924 15.08851383 29873,6917.846,95.437,540.58,538.841,0.0
53287.0,STARLINK-4107,PAYLOAD,2023-01-31 13:10:33,15.08850558,0.0001398,53.216,230.9808,73.5009,286.6137,-4.2158e-05,-9.59e-06,0.0,0 STARLINK-4107,1 53287U 22086AX  23031.54900293 -.00000959  00000-0 -42158-4 0  9993,2 53287  53.2160 230.9808 0001398  73.5009 286.6137 15.08850558 30123,6917.848,95.437,540.68,538.746,0.0
53287.0,STARLINK-4107,PAYLOAD,2023-01-31 19:32:06,15.08861156,0.0001449,53.216,229.7912,82.0961,278.0195,-0.00018628,-3.253e-05,0.0,0 STARLINK-4107,1 53287U 22086AX  23031.81395858 -.00003253  00000-0 -18628-3 0  9992,2 53287  53.2160 229.7912 0001449  82.0961 278.0195 15.08861156 30163,6917.816,95.436,540.683,538.678,0.0
53287.0,STARLINK-4107,PAYLOAD,2023-01-31 22:42:52,15.08862843,0.0001468,53.216,229.1967,84.0958,276.0201,-0.00022428,-3.858e-05,0.0,0 STARLINK-4107,1 53287U 22086AX  23031.94643699 -.00003858  00000-0 -22428-3 0  9999,2 53287  53.2160 229.1967 0001468  84.0958 276.0201 15.08862843 30188,6917.811,95.436,540.691,538.66,0.0
53287.0,STARLINK-4107,PAYLOAD,2023-02-01 19:22:53,15.08842418,0.0001351,53.2162,225.3292,89.2719,270.8428,2.4534e-05,1.03e-06,0.0,0 STARLINK-4107,1 53287U 22086AX  23032.80755959  .00000103  00000-0  24534-4 0  9997,2 53287  53.2162 225.3292 0001351  89.2719 270.8428 15.08842418 30158,6917.873,95.437,540.673,538.803,0.0
53287.0,STARLINK-4107,PAYLOAD,2023-02-02 11:16:44,15.08837758,0.0001199,53.2167,222.3556,84.722,275.3909,5.0575e-06,-2.07e-06,0.0,0 STARLINK-4107,1 53287U 22086AX  23033.46996310 -.00000207  00000-0  50575-5 0  9999,2 53287  53.2167 222.3556 0001199  84.7220 275.3909 15.08837758 30414,6917.887,95.438,540.582,538.923,0.0
53287.0,STARLINK-4107,PAYLOAD,2023-02-03 12:42:55,15.08858029,0.0001405,53.2144,217.5987,83.9853,276.1299,-0.00023376,-4.008e-05,0.0,0 STARLINK-4107,1 53287U 22086AX  23034.52980368 -.00004008  00000-0 -23376-3 0  9994,2 53287  53.2144 217.5987 0001405  83.9853 276.1299 15.08858029 30411,6917.825,95.436,540.662,538.718,0.0
53287.0,STARLINK-4107,PAYLOAD,2023-02-04 04:36:46,15.08845261,0.0001225,53.2154,214.6258,87.4268,272.6865,-9.9651e-05,-1.874e-05,0.0,0 STARLINK-4107,1 53287U 22086AX  23035.19220299 -.00001874  00000-0 -99651-4 0  9996,2 53287  53.2154 214.6258 0001225  87.4268 272.6865 15.08845261 30515,6917.864,95.437,540.577,538.882,0.0
53287.0,STARLINK-4107,PAYLOAD,2023-02-04 12:33:42,15.0883522,0.0001226,53.2158,213.1389,90.13,269.9833,3.5101e-05,2.71e-06,0.0,0 STARLINK-4107,1 53287U 22086AX  23035.52340702  .00000271  00000-0  35101-4 0  9993,2 53287  53.2158 213.1389 0001226  90.1300 269.9833 15.08835220 30560,6917.895,95.438,540.608,538.912,0.0
53287.0,STARLINK-4107,PAYLOAD,2023-02-04 20:30:37,15.08839355,0.0001185,53.2169,211.6518,92.1974,267.9153,6.0313e-05,6.72e-06,0.0,0 STARLINK-4107,1 53287U 22086AX  23035.85460371  .00000672  00000-0  60313-4 0  9992,2 53287  53.2169 211.6518 0001185  92.1974 267.9153 15.08839355 30771,6917.882,95.438,540.567,538.928,0.0
53287.0,STARLINK-4107,PAYLOAD,2023-02-05 10:49:06,15.08835595,0.0001136,53.2168,208.9756,90.1381,269.9741,4.0565e-05,3.58e-06,0.0,0 STARLINK-4107,1 53287U 22086AX  23036.45076792  .00000358  00000-0  40565-4 0  9997,2 53287  53.2168 208.9756 0001136  90.1381 269.9741 15.08835595 30866,6917.894,95.438,540.545,538.973,0.0
53287.0,STARLINK-4107,PAYLOAD,2023-02-05 18:46:01,15.08838611,0.0001063,53.2168,207.4884,88.6818,271.4295,1.3002e-05,-8.1e-07,0.0,0 STARLINK-4107,1 53287U 22086AX  23036.78196757 -.00000081  00000-0  13002-4 0  9997,2 53287  53.2168 207.4884 0001063  88.6818 271.4295 15.08838611 30750,6917.885,95.438,540.485,539.014,0.0
53287.0,STARLINK-4107,PAYLOAD,2023-02-06 04:18:20,15.08838316,0.0001059,53.2169,205.7043,89.4925,270.6189,5.5501e-05,5.96e-06,0.0,0 STARLINK-4107,1 53287U 22086AX  23037.17940719  .00000596  00000-0  55501-4 0  9996,2 53287  53.2169 205.7043 0001059  89.4925 270.6189 15.08838316 30971,6917.886,95.438,540.483,539.018,0.0
53287.0,STARLINK-4107,PAYLOAD,2023-02-06 20:12:11,15.08849453,0.0001048,53.2169,202.7304,87.0193,273.0919,0.00011429,1.532e-05,0.0,0 STARLINK-4107,1 53287U 22086AX  23037.84179906  .00001532  00000-0  11429-3 0  9993,2 53287  53.2169 202.7304 0001048  87.0193 273.0919 15.08849453 30913,6917.851,95.437,540.441,538.992,0.0
53287.0,STARLINK-4107,PAYLOAD,2023-02-07 04:09:07,15.08843847,0.0001015,53.2174,201.2431,81.3473,278.7634,4.5276e-05,4.33e-06,0.0,0 STARLINK-4107,1 53287U 22086AX  23038.17300433  .00000433  00000-0  45276-4 0  9998,2 53287  53.2174 201.2431 0001015  81.3473 278.7634 15.08843847 30968,6917.869,95.437,540.436,539.031,0.0
